GLOBALSTAR M023         
1 25621U 99004A   25349.36127594 -.00000068  00000+0  20030-3 0  9990
2 25621  52.0090 221.7589 0009977 162.6845   9.0173 12.62510417238611
GLOBALSTAR M040         
1 25622U 99004B   25349.16979862 -.00000092  00000+0  65949-4 0  9998
2 25622  51.9903 226.7630 0001916  69.5548 105.2402 12.62025038238103
GLOBALSTAR M036         
1 25623U 99004C   25349.09072185 -.00000079  00000+0  50242-4 0  9998
2 25623  51.9953 123.4889 0010876  41.6461 129.8851 11.86618329200451
GLOBALSTAR M038         
1 25624U 99004D   25349.28870284 -.00000079  00000+0  13629-3 0  9993
2 25624  51.9981 270.0161 0002591  65.4497 108.6480 12.32537420224704
GLOBALSTAR M022         
1 25649U 99012A   25348.88947457 -.00000037  00000+0  59380-3 0  9999
2 25649  52.0010 159.6660 0003220 148.2784  21.3773 12.02508099198119
GLOBALSTAR M041         
1 25650U 99012B   25349.30384105 -.00000097  00000+0 -15234-3 0  9991
2 25650  52.0039  45.5124 0000751 325.1803  34.8985 11.96681257199962
GLOBALSTAR M046         
1 25651U 99012C   25349.24698785 -.00000199  00000+0 -12190-2 0  9997
2 25651  52.0051 102.2183 0001465 229.8422 142.7285 12.09416445205570
GLOBALSTAR M037         
1 25652U 99012D   25349.31314931 -.00000068  00000+0  19684-3 0  9994
2 25652  52.0028 352.4553 0001804 224.6271 149.2562 12.62458338234159
